{
"type": "FeatureCollection",
"name": "mimal_full3",
"crs": { "type": "name", "properties": { "name": "urn:ogc:def:crs:OGC:1.3:CRS84" } },
"features": [
{ "type": "Feature", "properties": { }, "geometry": { "type": "Polygon", "coordinates": [ [ [ 133.546008532047324, -14.011128577540537 ], [ 133.54958580220233, -13.429498958145055 ], [ 134.540848937486913, -13.433255186633 ], [ 134.53971606021932, -14.015053775153774 ], [ 133.546008532047324, -14.011128577540537 ] ] ] } },
{ "type": "Feature", "properties": { }, "geometry": { "type": "Polygon", "coordinates": [ [ [ 133.546008532047324, -14.011128577540537 ], [ 133.54958580220233, -13.429498958145055 ], [ 134.540848937486913, -13.433255186633 ], [ 134.53971606021932, -14.015053775153774 ], [ 133.546008532047324, -14.011128577540537 ] ] ] } }
]
}
