{
"type": "FeatureCollection",
"name": "mimal_full2",
"crs": { "type": "name", "properties": { "name": "urn:ogc:def:crs:OGC:1.3:CRS84" } },
"features": [
{ "type": "Feature", "properties": { }, "geometry": { "type": "Polygon", "coordinates": [ [ [ 134.540519075410913, -13.43311446979337 ], [ 134.54185407664707, -12.71054524153546 ], [ 135.421819125692252, -12.710605500831084 ], [ 135.423048281507249, -13.43317827527799 ], [ 134.540519075410913, -13.43311446979337 ] ] ] } },
{ "type": "Feature", "properties": { }, "geometry": { "type": "Polygon", "coordinates": [ [ [ 134.540519075410913, -13.43311446979337 ], [ 134.54185407664707, -12.71054524153546 ], [ 135.421819125692252, -12.710605500831084 ], [ 135.423048281507249, -13.43317827527799 ], [ 134.540519075410913, -13.43311446979337 ] ] ] } }
]
}
