{"type":"FeatureCollection","features":[{"type":"Feature","geometry":{"type":"Polygon","coordinates":[[[134.48527701772167,-13.504134740873276],[134.49084533424448,-13.504134740873276],[134.49084533424448,-13.500660814192454],[134.48527701772167,-13.500660814192454],[134.48527701772167,-13.504134740873276]]]},"properties":{"site_id":"026","label":"WH_swamp","center_lon":134.4880611759831,"center_lat":-13.502397777532863,"width_m":602.7,"height_m":384.1}},{"type":"Feature","geometry":{"type":"Polygon","coordinates":[[[134.48780257134834,-13.49907395617178],[134.4895814208059,-13.49907395617178],[134.4895814208059,-13.497699084859317],[134.48780257134834,-13.497699084859317],[134.48780257134834,-13.49907395617178]]]},"properties":{"site_id":"027","label":"WH_wet","center_lon":134.48869199607714,"center_lat":-13.498386520515549,"width_m":192.6,"height_m":152.0}}]}