{"type":"FeatureCollection","sites_without_footprint":["066","072","092","131","133","134","137","141","146","166","182"],"features":[{"type":"Feature","geometry":{"type":"Polygon","coordinates":[[[134.4978015,-13.5381075],[134.4978939,-13.5381077],[134.4978937,-13.5381981],[134.4981709,-13.5381987],[134.4981707,-13.5382891],[134.4983556,-13.5382895],[134.4983552,-13.5384703],[134.4984476,-13.5384705],[134.4984474,-13.5385609],[134.498355,-13.5385607],[134.4983546,-13.5387416],[134.4985395,-13.5387419],[134.4985391,-13.5389228],[134.4986315,-13.538923],[134.4986313,-13.5390134],[134.4985389,-13.5390132],[134.4985385,-13.539194],[134.4983537,-13.5391937],[134.4983535,-13.5392841],[134.4982611,-13.5392839],[134.4982613,-13.5391935],[134.4980764,-13.5391931],[134.4980762,-13.5392835],[134.4981687,-13.5392837],[134.4981685,-13.5393741],[134.498076,-13.5393739],[134.4980757,-13.5395548],[134.4978908,-13.5395544],[134.4978906,-13.5396448],[134.4977982,-13.5396446],[134.4977984,-13.5395542],[134.4976136,-13.5395539],[134.497614,-13.539373],[134.4975216,-13.5393728],[134.4975221,-13.5391016],[134.4973373,-13.5391012],[134.4973377,-13.5389204],[134.4972453,-13.5389202],[134.4972454,-13.5388298],[134.4973379,-13.5388299],[134.4973382,-13.5386491],[134.4974307,-13.5386493],[134.497431,-13.5384684],[134.4975235,-13.5384686],[134.4975238,-13.5382878],[134.4976162,-13.538288],[134.4976164,-13.5381976],[134.4978013,-13.5381979],[134.4978015,-13.5381075]]]},"properties":{"site_id":"000","n_pixels":147,"area_m2":14700.0,"area_ha":1.47,"succeeded":true,"notes":"kept the largest of 2 regions (28 px discarded as fragments)"}},{"type":"Feature","geometry":{"type":"Polygon","coordinates":[[[134.4829879,-13.5506457],[134.4831727,-13.5506461],[134.4831725,-13.5507365],[134.4833574,-13.5507369],[134.483357,-13.5509177],[134.4834494,-13.5509179],[134.483449,-13.5510988],[134.4833566,-13.5510986],[134.4833562,-13.5512794],[134.4831713,-13.551279],[134.4831712,-13.5513694],[134.4828939,-13.5513689],[134.4828941,-13.5512785],[134.4827092,-13.5512781],[134.4827096,-13.5510972],[134.4826172,-13.551097],[134.4826174,-13.5510066],[134.4827098,-13.5510068],[134.4827102,-13.550826],[134.4828026,-13.5508262],[134.4828028,-13.5507357],[134.4829877,-13.5507361],[134.4829879,-13.5506457]]]},"properties":{"site_id":"001","n_pixels":49,"area_m2":4900.0,"area_ha":0.49,"succeeded":true,"notes":""}},{"type":"Feature","geometry":{"type":"Polygon","coordinates":[[[134.5081889,-13.5201345],[134.5084661,-13.520135],[134.508466,-13.5202254],[134.5085584,-13.5202256],[134.5085585,-13.5201352],[134.5090206,-13.5201361],[134.5090204,-13.5202265],[134.5092052,-13.5202269],[134.5092054,-13.5201365],[134.5092978,-13.5201367],[134.5092976,-13.5202271],[134.50939,-13.5202273],[134.5093902,-13.5201368],[134.5094826,-13.520137],[134.5094824,-13.5202274],[134.5096673,-13.5202278],[134.5096671,-13.5203182],[134.5097595,-13.5203184],[134.5097597,-13.520228],[134.5098521,-13.5202282],[134.5098519,-13.5203186],[134.5100367,-13.5203189],[134.5100369,-13.5202285],[134.5101293,-13.5202287],[134.5101291,-13.5203191],[134.5103139,-13.5203195],[134.5103138,-13.5204099],[134.5104062,-13.5204101],[134.510406,-13.5205005],[134.5105908,-13.5205009],[134.5105906,-13.5205913],[134.5107754,-13.5205916],[134.5107752,-13.5206821],[134.5108677,-13.5206822],[134.5108675,-13.5207727],[134.5111447,-13.5207732],[134.5111445,-13.5208636],[134.5114217,-13.5208642],[134.5114219,-13.5207737],[134.5117916,-13.5207745],[134.5117914,-13.5208649],[134.5119762,-13.5208652],[134.511976,-13.5209557],[134.5120684,-13.5209559],[134.5120682,-13.5210463],[134.5122531,-13.5210466],[134.5122529,-13.5211371],[134.5124377,-13.5211374],[134.5124375,-13.5212278],[134.5125299,-13.521228],[134.5125301,-13.5211376],[134.5126225,-13.5211378],[134.5126229,-13.5209569],[134.5128077,-13.5209573],[134.5128079,-13.5208669],[134.5129003,-13.520867],[134.5129001,-13.5209575],[134.5130849,-13.5209578],[134.5130845,-13.5211387],[134.5134542,-13.5211394],[134.513454,-13.5212298],[134.5136388,-13.5212302],[134.5136386,-13.5213206],[134.5138235,-13.5213209],[134.5138233,-13.5214114],[134.5140081,-13.5214117],[134.5140077,-13.5215926],[134.5141001,-13.5215927],[134.5140996,-13.521864],[134.5140072,-13.5218638],[134.5140068,-13.5220447],[134.5139144,-13.5220445],[134.513914,-13.5222253],[134.5137292,-13.522225],[134.513729,-13.5223154],[134.5135442,-13.522315],[134.5135444,-13.5222246],[134.5133596,-13.5222243],[134.5133594,-13.5223147],[134.5131746,-13.5223143],[134.5131744,-13.5224047],[134.513082,-13.5224046],[134.5130816,-13.5225854],[134.5129892,-13.5225852],[134.5129888,-13.5227661],[134.512804,-13.5227657],[134.5128038,-13.5228561],[134.5127114,-13.5228559],[134.5127116,-13.5227655],[134.5125268,-13.5227652],[134.5125272,-13.5225843],[134.5124347,-13.5225841],[134.5124346,-13.5226746],[134.5121573,-13.522674],[134.5121571,-13.5227644],[134.5119723,-13.5227641],[134.5119721,-13.5228545],[134.5118797,-13.5228543],[134.5118799,-13.5227639],[134.5116951,-13.5227635],[134.5116953,-13.5226731],[134.5116029,-13.5226729],[134.5116027,-13.5227634],[134.5113255,-13.5227628],[134.5113253,-13.5228532],[134.5112329,-13.5228531],[134.5112327,-13.5229435],[134.5111403,-13.5229433],[134.5111401,-13.5230337],[134.5110477,-13.5230335],[134.5110475,-13.523124],[134.5108627,-13.5231236],[134.5108625,-13.523214],[134.5107701,-13.5232138],[134.5107703,-13.5231234],[134.5106779,-13.5231232],[134.5106777,-13.5232136],[134.5101232,-13.5232126],[134.510123,-13.523303],[134.5095686,-13.5233019],[134.5095688,-13.5232115],[134.5093839,-13.5232111],[134.5093837,-13.5233015],[134.5094762,-13.5233017],[134.509476,-13.5233921],[134.5093836,-13.523392],[134.5093832,-13.5235728],[134.5091984,-13.5235724],[134.5091982,-13.5236629],[134.5091058,-13.5236627],[134.509106,-13.5235723],[134.5089211,-13.5235719],[134.5089215,-13.5233911],[134.5088291,-13.5233909],[134.5088289,-13.5234813],[134.5086441,-13.5234809],[134.5086439,-13.5235713],[134.5083667,-13.5235708],[134.5083665,-13.5236612],[134.5082741,-13.523661],[134.5082743,-13.5235706],[134.5080895,-13.5235703],[134.5080896,-13.5234798],[134.5079972,-13.5234797],[134.5079974,-13.5233892],[134.5078126,-13.5233889],[134.5078128,-13.5232985],[134.5077204,-13.5232983],[134.5077206,-13.5232079],[134.5076281,-13.5232077],[134.5076285,-13.5230268],[134.5075361,-13.5230267],[134.5075363,-13.5229362],[134.5076287,-13.5229364],[134.5076293,-13.5226652],[134.5075369,-13.522665],[134.507537,-13.5225745],[134.5074446,-13.5225744],[134.5074444,-13.5226648],[134.5072596,-13.5226644],[134.5072594,-13.5227548],[134.507167,-13.5227547],[134.5071672,-13.5226642],[134.5069824,-13.5226639],[134.5069828,-13.522483],[134.5068904,-13.5224829],[134.5068905,-13.5223924],[134.506983,-13.5223926],[134.5069833,-13.5222118],[134.5071681,-13.5222121],[134.5071685,-13.5220313],[134.5070761,-13.5220311],[134.5070765,-13.5218503],[134.5069841,-13.5218501],[134.5069846,-13.5215788],[134.507077,-13.521579],[134.5070774,-13.5213982],[134.5071698,-13.5213984],[134.50717,-13.5213079],[134.5070776,-13.5213078],[134.507078,-13.5211269],[134.5069856,-13.5211267],[134.5069859,-13.5209459],[134.5070783,-13.5209461],[134.5070787,-13.5207652],[134.5071711,-13.5207654],[134.5071713,-13.520675],[134.5072637,-13.5206752],[134.5072639,-13.5205848],[134.5073563,-13.5205849],[134.5073565,-13.5204945],[134.5075413,-13.5204949],[134.5075415,-13.5204045],[134.5077263,-13.5204048],[134.5077265,-13.5203144],[134.5079113,-13.5203148],[134.5079115,-13.5202244],[134.5081887,-13.5202249],[134.5081889,-13.5201345]],[[134.5088297,-13.5231196],[134.5088295,-13.52321],[134.5089219,-13.5232102],[134.5089221,-13.5231198],[134.5088297,-13.5231196]]]},"properties":{"site_id":"002","n_pixels":1962,"area_m2":196200.0,"area_ha":19.62,"succeeded":true,"notes":"kept the largest of 3 regions (58 px discarded as fragments)"}},{"type":"Feature","geometry":{"type":"Polygon","coordinates":[[[134.5658249,-13.3814438],[134.5666561,-13.3814452],[134.566656,-13.3815356],[134.5667483,-13.3815358],[134.566748,-13.3817166],[134.5669327,-13.3817169],[134.5669325,-13.3818074],[134.5672096,-13.3818078],[134.5672098,-13.3817174],[134.5673945,-13.3817177],[134.5673946,-13.3816273],[134.5675794,-13.3816276],[134.5675792,-13.3817181],[134.5676715,-13.3817182],[134.5676719,-13.3815374],[134.5675795,-13.3815372],[134.5675797,-13.3814468],[134.5682262,-13.3814479],[134.568226,-13.3815383],[134.5681337,-13.3815382],[134.5681333,-13.381719],[134.5679486,-13.3817187],[134.5679485,-13.3818091],[134.5678561,-13.381809],[134.5678563,-13.3817185],[134.5677639,-13.3817184],[134.5677636,-13.3818992],[134.5678559,-13.3818994],[134.5678556,-13.3820802],[134.567948,-13.3820804],[134.5679478,-13.3821708],[134.5678555,-13.3821706],[134.5678553,-13.3822611],[134.5679476,-13.3822612],[134.5679472,-13.3825325],[134.5678548,-13.3825323],[134.5678545,-13.3827132],[134.5676698,-13.3827129],[134.5676696,-13.3828033],[134.5673925,-13.3828028],[134.5673924,-13.3828932],[134.5673,-13.3828931],[134.5673002,-13.3828026],[134.5671155,-13.3828023],[134.5671158,-13.3826215],[134.5670234,-13.3826213],[134.5670236,-13.3825309],[134.567116,-13.3825311],[134.5671163,-13.3823502],[134.5669316,-13.3823499],[134.5669314,-13.3824403],[134.566839,-13.3824402],[134.5668392,-13.3823497],[134.5666545,-13.3823494],[134.5666547,-13.382259],[134.5665623,-13.3822588],[134.5665621,-13.3823493],[134.5664698,-13.3823491],[134.5664699,-13.3822587],[134.5663776,-13.3822585],[134.5663774,-13.382349],[134.5662851,-13.3823488],[134.5662847,-13.3825296],[134.5661924,-13.3825295],[134.5661919,-13.3828007],[134.5662843,-13.3828009],[134.5662841,-13.3828913],[134.5661917,-13.3828912],[134.5661914,-13.383072],[134.5660991,-13.3830719],[134.5660989,-13.3831623],[134.5661913,-13.3831624],[134.5661911,-13.3832529],[134.5660987,-13.3832527],[134.5660986,-13.3833431],[134.5661909,-13.3833433],[134.5661906,-13.3835241],[134.566283,-13.3835243],[134.5662828,-13.3836147],[134.5661904,-13.3836145],[134.5661901,-13.3837954],[134.5660978,-13.3837952],[134.5660974,-13.3839761],[134.5662822,-13.3839764],[134.566282,-13.3840668],[134.5663744,-13.384067],[134.5663745,-13.3839765],[134.5666516,-13.383977],[134.5666521,-13.3837058],[134.5665597,-13.3837056],[134.5665599,-13.3836152],[134.5666522,-13.3836153],[134.5666526,-13.3834345],[134.5667449,-13.3834346],[134.5667451,-13.3833442],[134.5669298,-13.3833445],[134.56693,-13.3832541],[134.567207,-13.3832546],[134.5672069,-13.383345],[134.5673916,-13.3833453],[134.5673913,-13.3835262],[134.5674836,-13.3835263],[134.5674831,-13.3837976],[134.5675755,-13.3837978],[134.5675753,-13.3838882],[134.567483,-13.383888],[134.5674828,-13.3839784],[134.5675752,-13.3839786],[134.567575,-13.384069],[134.5674826,-13.3840689],[134.5674823,-13.3842497],[134.56739,-13.3842496],[134.5673898,-13.38434],[134.5672974,-13.3843398],[134.5672973,-13.3844302],[134.5672049,-13.3844301],[134.5672048,-13.3845205],[134.5676665,-13.3845213],[134.5676667,-13.3844309],[134.5677591,-13.384431],[134.5677589,-13.3845215],[134.5679436,-13.3845218],[134.5679433,-13.3847026],[134.568128,-13.3847029],[134.5681279,-13.3847933],[134.5683126,-13.3847937],[134.5683122,-13.3849745],[134.5684046,-13.3849747],[134.5684044,-13.3850651],[134.5683121,-13.3850649],[134.5683118,-13.3852458],[134.5682194,-13.3852456],[134.5682192,-13.385336],[134.5681269,-13.3853359],[134.5681266,-13.3855167],[134.5679418,-13.3855164],[134.5679417,-13.3856068],[134.5678493,-13.3856067],[134.5678492,-13.3856971],[134.5680339,-13.3856974],[134.568034,-13.385607],[134.5683111,-13.3856075],[134.5683114,-13.3854266],[134.5684962,-13.3854269],[134.5684963,-13.3853365],[134.5685887,-13.3853367],[134.5685885,-13.3854271],[134.5686809,-13.3854272],[134.568681,-13.3853368],[134.5688657,-13.3853371],[134.5688659,-13.3852467],[134.5689583,-13.3852469],[134.5689581,-13.3853373],[134.5691428,-13.3853376],[134.5691425,-13.3855185],[134.5692349,-13.3855186],[134.5692347,-13.385609],[134.5691423,-13.3856089],[134.5691419,-13.3858801],[134.5690495,-13.38588],[134.5690493,-13.3859704],[134.5691417,-13.3859706],[134.5691415,-13.386061],[134.5690492,-13.3860608],[134.569049,-13.3861513],[134.5691414,-13.3861514],[134.5691412,-13.3862418],[134.5693259,-13.3862421],[134.5693256,-13.386423],[134.569418,-13.3864231],[134.5694178,-13.3865136],[134.5693254,-13.3865134],[134.5693251,-13.3866943],[134.5692328,-13.3866941],[134.5692324,-13.3868749],[134.5694172,-13.3868753],[134.5694168,-13.3870561],[134.5695092,-13.3870563],[134.5695089,-13.3872371],[134.5694165,-13.3872369],[134.5694162,-13.3874178],[134.5692315,-13.3874175],[134.5692313,-13.3875079],[134.569139,-13.3875077],[134.5691391,-13.3874173],[134.5689544,-13.387417],[134.5689542,-13.3875074],[134.5687695,-13.3875071],[134.5687697,-13.3874167],[134.568585,-13.3874164],[134.5685851,-13.3873259],[134.5684928,-13.3873258],[134.5684929,-13.3872354],[134.5682159,-13.3872349],[134.5682157,-13.3873253],[134.5679386,-13.3873248],[134.5679385,-13.3874153],[134.5678461,-13.3874151],[134.5678463,-13.3873247],[134.5676615,-13.3873244],[134.5676617,-13.3872339],[134.567477,-13.3872336],[134.5674768,-13.3873241],[134.5673845,-13.3873239],[134.5673846,-13.3872335],[134.5671076,-13.387233],[134.5671077,-13.3871426],[134.5668306,-13.3871421],[134.5668303,-13.3873229],[134.5666456,-13.3873226],[134.5666454,-13.3874131],[134.5665531,-13.3874129],[134.5665532,-13.3873225],[134.5662762,-13.387322],[134.566276,-13.3874124],[134.5660913,-13.3874121],[134.5660915,-13.3873217],[134.5659067,-13.3873214],[134.5659069,-13.3872309],[134.5658145,-13.3872308],[134.5658147,-13.3871404],[134.56563,-13.38714],[134.5656303,-13.3869592],[134.565538,-13.386959],[134.5655383,-13.3867782],[134.5654459,-13.386778],[134.5654462,-13.3865972],[134.5652615,-13.3865969],[134.5652614,-13.3866873],[134.565169,-13.3866871],[134.5651692,-13.3865967],[134.5649845,-13.3865964],[134.5649848,-13.3864156],[134.5648924,-13.3864154],[134.5648926,-13.386325],[134.5649849,-13.3863251],[134.5649853,-13.3861443],[134.56517,-13.3861446],[134.5651701,-13.3860542],[134.5652625,-13.3860543],[134.5652623,-13.3861448],[134.5654471,-13.3861451],[134.5654469,-13.3862355],[134.5655392,-13.3862357],[134.5655397,-13.3859644],[134.5654474,-13.3859642],[134.5654475,-13.3858738],[134.5652628,-13.3858735],[134.5652627,-13.3859639],[134.5648932,-13.3859633],[134.5648934,-13.3858729],[134.5647087,-13.3858725],[134.5647088,-13.3857821],[134.5645241,-13.3857818],[134.5645243,-13.3856914],[134.5643396,-13.3856911],[134.5643397,-13.3856006],[134.564155,-13.3856003],[134.5641553,-13.3854195],[134.564063,-13.3854193],[134.5640631,-13.3853289],[134.5641555,-13.3853291],[134.5641563,-13.384877],[134.5639716,-13.3848766],[134.5639719,-13.3846958],[134.5638796,-13.3846956],[134.5638797,-13.3846052],[134.5639721,-13.3846054],[134.5639724,-13.3844245],[134.5641571,-13.3844248],[134.5641573,-13.3843344],[134.5642497,-13.3843346],[134.56425,-13.3841537],[134.5644347,-13.3841541],[134.5644349,-13.3840636],[134.5646196,-13.384064],[134.5646194,-13.3841544],[134.5648041,-13.3841547],[134.5648043,-13.3840643],[134.5648966,-13.3840644],[134.564897,-13.3838836],[134.5650817,-13.3838839],[134.5650818,-13.3837935],[134.5651742,-13.3837936],[134.565174,-13.3838841],[134.5652664,-13.3838842],[134.5652666,-13.3837938],[134.5653589,-13.383794],[134.5653591,-13.3837035],[134.5652667,-13.3837034],[134.5652669,-13.383613],[134.5653592,-13.3836131],[134.5653596,-13.3834323],[134.5655443,-13.3834326],[134.5655444,-13.3833422],[134.5656368,-13.3833423],[134.565637,-13.3832519],[134.5655446,-13.3832517],[134.5655448,-13.3831613],[134.5656371,-13.3831615],[134.5656376,-13.3828902],[134.5655452,-13.3828901],[134.5655454,-13.3827996],[134.5656378,-13.3827998],[134.5656381,-13.382619],[134.5657304,-13.3826191],[134.5657308,-13.3824383],[134.5656384,-13.3824381],[134.5656387,-13.3822573],[134.565454,-13.3822569],[134.5654539,-13.3823474],[134.5653615,-13.3823472],[134.5653617,-13.3822568],[134.5652693,-13.3822566],[134.565269,-13.3824375],[134.5653613,-13.3824376],[134.5653612,-13.3825281],[134.5652688,-13.3825279],[134.5652685,-13.3827087],[134.5650838,-13.3827084],[134.5650836,-13.3827988],[134.5648989,-13.3827985],[134.5648991,-13.3827081],[134.5647144,-13.3827078],[134.5647147,-13.3825269],[134.5646223,-13.3825268],[134.5646225,-13.3824364],[134.5647148,-13.3824365],[134.564715,-13.3823461],[134.5645303,-13.3823458],[134.5645305,-13.3822554],[134.5643457,-13.382255],[134.5643461,-13.3820742],[134.5642537,-13.382074],[134.564254,-13.3818932],[134.5643464,-13.3818934],[134.5643467,-13.3817125],[134.5645314,-13.3817128],[134.5645316,-13.3816224],[134.564624,-13.3816226],[134.5646238,-13.381713],[134.5648085,-13.3817133],[134.5648083,-13.3818037],[134.5650854,-13.3818042],[134.5650856,-13.3817138],[134.5651779,-13.3817139],[134.5651778,-13.3818044],[134.5653625,-13.3818047],[134.5653626,-13.3817143],[134.565455,-13.3817144],[134.5654548,-13.3818048],[134.5657319,-13.3818053],[134.5657322,-13.3816245],[134.5658246,-13.3816246],[134.5658249,-13.3814438]],[[134.5656391,-13.3820764],[134.5656387,-13.3822573],[134.5657311,-13.3822574],[134.5657314,-13.3820766],[134.5656391,-13.3820764]],[[134.5677566,-13.3857874],[134.5677565,-13.3858778],[134.5678488,-13.3858779],[134.567849,-13.3857875],[134.5677566,-13.3857874]],[[134.567664,-13.385968],[134.5676636,-13.3861489],[134.5675713,-13.3861487],[134.5675711,-13.3862391],[134.5674788,-13.386239],[134.5674786,-13.3863294],[134.5673862,-13.3863293],[134.5673859,-13.3865101],[134.5674783,-13.3865103],[134.5674784,-13.3864198],[134.5675708,-13.38642],[134.567571,-13.3863296],[134.5677557,-13.3863299],[134.5677563,-13.3859682],[134.567664,-13.385968]],[[134.568495,-13.3860599],[134.5684947,-13.3862407],[134.5685871,-13.3862409],[134.5685874,-13.38606],[134.568495,-13.3860599]],[[134.5686794,-13.386241],[134.5686793,-13.3863315],[134.5687716,-13.3863316],[134.5687718,-13.3862412],[134.5686794,-13.386241]],[[134.5668318,-13.3865092],[134.5668316,-13.3865996],[134.566924,-13.3865997],[134.5669241,-13.3865093],[134.5668318,-13.3865092]],[[134.5690479,-13.3867842],[134.5690477,-13.3868746],[134.5691401,-13.3868748],[134.5691402,-13.3867844],[134.5690479,-13.3867842]]]},"properties":{"site_id":"003","n_pixels":2142,"area_m2":214200.0,"area_ha":21.42,"succeeded":true,"notes":"kept the largest of 8 regions (613 px discarded as fragments)"}},{"type":"Feature","geometry":{"type":"Polygon","coordinates":[[[134.5642758,-13.3697767],[134.5643682,-13.3697768],[134.564368,-13.3698672],[134.5645527,-13.3698676],[134.5645525,-13.369958],[134.5646449,-13.3699581],[134.5646447,-13.3700486],[134.5647371,-13.3700487],[134.5647369,-13.3701391],[134.5648293,-13.3701393],[134.564829,-13.3703201],[134.5649213,-13.3703203],[134.5649211,-13.3704107],[134.5648288,-13.3704106],[134.5648283,-13.3706818],[134.5647359,-13.3706817],[134.5647356,-13.3708625],[134.5646433,-13.3708624],[134.5646431,-13.3709528],[134.5648278,-13.3709531],[134.5648275,-13.3711339],[134.5649198,-13.3711341],[134.5649197,-13.3712245],[134.5648273,-13.3712244],[134.5648267,-13.3715861],[134.564919,-13.3715862],[134.5649192,-13.3714958],[134.5650115,-13.3714959],[134.5650117,-13.3714055],[134.5651964,-13.3714058],[134.5651966,-13.3713154],[134.5653813,-13.3713157],[134.5653811,-13.3714062],[134.5655658,-13.3714065],[134.565566,-13.3713161],[134.5654736,-13.3713159],[134.5654738,-13.3712255],[134.5653814,-13.3712253],[134.5653816,-13.3711349],[134.5651969,-13.3711346],[134.5651972,-13.3709537],[134.5651049,-13.3709536],[134.5651052,-13.3707727],[134.5651975,-13.3707729],[134.5651979,-13.370592],[134.5653826,-13.3705924],[134.5653827,-13.3705019],[134.5657521,-13.3705026],[134.565752,-13.370593],[134.5658443,-13.3705932],[134.5658445,-13.3705027],[134.5659368,-13.3705029],[134.5659367,-13.3705933],[134.5663061,-13.3705939],[134.5663063,-13.3705035],[134.5663986,-13.3705037],[134.5663984,-13.3705941],[134.5667679,-13.3705947],[134.5667677,-13.3706852],[134.5669524,-13.3706855],[134.5669522,-13.3707759],[134.5670446,-13.3707761],[134.5670444,-13.3708665],[134.5671368,-13.3708666],[134.5671365,-13.3710475],[134.5672288,-13.3710476],[134.5672286,-13.3711381],[134.5674134,-13.3711384],[134.5674135,-13.371048],[134.5675982,-13.3710483],[134.5675984,-13.3709578],[134.5676907,-13.370958],[134.5676906,-13.3710484],[134.5678753,-13.3710487],[134.5678754,-13.3709583],[134.5679678,-13.3709585],[134.5679676,-13.3710489],[134.5681523,-13.3710492],[134.568152,-13.3712301],[134.5684291,-13.3712305],[134.5684292,-13.3711401],[134.5686139,-13.3711404],[134.5686141,-13.37105],[134.5687064,-13.3710502],[134.5687063,-13.3711406],[134.568891,-13.3711409],[134.5688913,-13.3709601],[134.569076,-13.3709604],[134.5690762,-13.3708699],[134.5691685,-13.3708701],[134.5691684,-13.3709605],[134.5692607,-13.3709607],[134.5692609,-13.3708703],[134.5693532,-13.3708704],[134.5693534,-13.37078],[134.5694457,-13.3707802],[134.5694461,-13.3705993],[134.5696308,-13.3705996],[134.5696309,-13.3705092],[134.5697233,-13.3705094],[134.5697231,-13.3705998],[134.5699078,-13.3706001],[134.569908,-13.3705097],[134.5700003,-13.3705098],[134.5700002,-13.3706003],[134.5703696,-13.3706009],[134.5703697,-13.3705105],[134.5704621,-13.3705106],[134.5704619,-13.370601],[134.5708313,-13.3706017],[134.5708315,-13.3705112],[134.5710162,-13.3705116],[134.5710161,-13.370602],[134.5712008,-13.3706023],[134.5712004,-13.3707831],[134.5713851,-13.3707834],[134.571385,-13.3708739],[134.5715697,-13.3708742],[134.5715694,-13.371055],[134.5716617,-13.3710552],[134.5716614,-13.371236],[134.5717538,-13.3712362],[134.5717536,-13.3713266],[134.5716612,-13.3713264],[134.5716609,-13.3715073],[134.5714762,-13.371507],[134.5714761,-13.3715974],[134.5713837,-13.3715972],[134.5713839,-13.3715068],[134.5712915,-13.3715067],[134.5712913,-13.3715971],[134.571199,-13.3715969],[134.5711992,-13.3715065],[134.5710145,-13.3715062],[134.5710143,-13.3715966],[134.5711066,-13.3715968],[134.5711065,-13.3716872],[134.5712912,-13.3716875],[134.5712909,-13.3718684],[134.5713832,-13.3718685],[134.5713831,-13.3719589],[134.5712907,-13.3719588],[134.5712904,-13.3721396],[134.571198,-13.3721395],[134.5711979,-13.3722299],[134.5711055,-13.3722297],[134.5711052,-13.3724106],[134.5709205,-13.3724103],[134.5709203,-13.3725007],[134.5707356,-13.3725004],[134.5707355,-13.3725908],[134.5706431,-13.3725906],[134.5706433,-13.3725002],[134.5704586,-13.3724999],[134.5704587,-13.3724095],[134.570274,-13.3724092],[134.5702739,-13.3724996],[134.5703662,-13.3724997],[134.5703661,-13.3725902],[134.5704584,-13.3725903],[134.5704581,-13.3727712],[134.5705504,-13.3727713],[134.57055,-13.3730426],[134.5706423,-13.3730427],[134.5706422,-13.3731332],[134.5705498,-13.373133],[134.5705496,-13.3732234],[134.570642,-13.3732236],[134.5706418,-13.373314],[134.5705495,-13.3733139],[134.5705488,-13.3736755],[134.5704565,-13.3736754],[134.5704562,-13.3738562],[134.5703638,-13.3738561],[134.5703637,-13.3739465],[134.5702713,-13.3739463],[134.570271,-13.3741272],[134.5701786,-13.374127],[134.5701785,-13.3742174],[134.5700861,-13.3742173],[134.570086,-13.3743077],[134.5699936,-13.3743076],[134.5699934,-13.374398],[134.5698087,-13.3743977],[134.5698086,-13.3744881],[134.5696239,-13.3744878],[134.5696237,-13.3745782],[134.569439,-13.3745779],[134.5694388,-13.3746683],[134.5692541,-13.374668],[134.5692538,-13.3748488],[134.5690691,-13.3748485],[134.5690689,-13.3749389],[134.5687919,-13.3749385],[134.5687917,-13.3750289],[134.5685147,-13.3750284],[134.5685145,-13.3751188],[134.5684221,-13.3751187],[134.568422,-13.3752091],[134.5682373,-13.3752088],[134.5682371,-13.3752992],[134.5678677,-13.3752986],[134.5678675,-13.375389],[134.5677752,-13.3753888],[134.5677753,-13.3752984],[134.5675906,-13.3752981],[134.567591,-13.3751173],[134.5674986,-13.3751171],[134.5674988,-13.3750267],[134.5674064,-13.3750265],[134.5674066,-13.3749361],[134.5672219,-13.3749358],[134.5672222,-13.3747549],[134.5671298,-13.3747548],[134.56713,-13.3746644],[134.5672224,-13.3746645],[134.5672225,-13.3745741],[134.5671302,-13.3745739],[134.5671303,-13.3744835],[134.567038,-13.3744834],[134.5670383,-13.3743025],[134.5669459,-13.3743024],[134.5669461,-13.3742119],[134.5670385,-13.3742121],[134.5670388,-13.3740312],[134.5669464,-13.3740311],[134.5669472,-13.373579],[134.5668549,-13.3735788],[134.5668552,-13.373398],[134.5667628,-13.3733978],[134.566763,-13.3733074],[134.5666707,-13.3733072],[134.566671,-13.3731264],[134.5665786,-13.3731262],[134.5665788,-13.3730358],[134.5666711,-13.373036],[134.5666715,-13.3728551],[134.5664868,-13.3728548],[134.5664866,-13.3729452],[134.5663942,-13.3729451],[134.5663939,-13.3731259],[134.5662092,-13.3731256],[134.5662091,-13.373216],[134.5661167,-13.3732159],[134.5661169,-13.3731254],[134.5659322,-13.3731251],[134.5659325,-13.3729443],[134.5658401,-13.3729441],[134.5658403,-13.3728537],[134.5659326,-13.3728539],[134.565933,-13.372673],[134.5657483,-13.3726727],[134.5657486,-13.3724919],[134.5656562,-13.3724917],[134.5656564,-13.3724013],[134.5657487,-13.3724014],[134.5657491,-13.3722206],[134.5659338,-13.3722209],[134.5659339,-13.3721305],[134.5660263,-13.3721306],[134.5660265,-13.3720402],[134.5658417,-13.3720399],[134.5658421,-13.3718591],[134.5657497,-13.3718589],[134.5657499,-13.3717685],[134.5658422,-13.3717686],[134.5658426,-13.3715878],[134.5657502,-13.3715876],[134.5657504,-13.3714972],[134.5655657,-13.3714969],[134.5655655,-13.3715873],[134.5656579,-13.3715875],[134.5656577,-13.3716779],[134.5655653,-13.3716777],[134.565565,-13.3718586],[134.5654727,-13.3718584],[134.5654725,-13.3719488],[134.5655649,-13.371949],[134.5655647,-13.3720394],[134.5654723,-13.3720393],[134.565472,-13.3722201],[134.5652873,-13.3722198],[134.5652871,-13.3723102],[134.5651024,-13.3723099],[134.5651023,-13.3724003],[134.5650099,-13.3724002],[134.5650096,-13.372581],[134.5648249,-13.3725807],[134.5648247,-13.3726711],[134.5647324,-13.372671],[134.5647325,-13.3725805],[134.5645478,-13.3725802],[134.5645477,-13.3726706],[134.5644553,-13.3726705],[134.5644555,-13.3725801],[134.5642708,-13.3725797],[134.5642709,-13.3724893],[134.5641786,-13.3724892],[134.5641788,-13.3723987],[134.5640864,-13.3723986],[134.5640862,-13.372489],[134.5639015,-13.3724887],[134.5639014,-13.3725791],[134.563809,-13.3725789],[134.5638092,-13.3724885],[134.5636245,-13.3724882],[134.5636246,-13.3723978],[134.5633476,-13.3723973],[134.5633477,-13.3723069],[134.563163,-13.3723066],[134.5631634,-13.3721257],[134.5629787,-13.3721254],[134.5629785,-13.3722158],[134.5627938,-13.3722155],[134.5627936,-13.3723059],[134.5627013,-13.3723058],[134.5627014,-13.3722153],[134.5626091,-13.3722152],[134.5626089,-13.3723056],[134.5625166,-13.3723054],[134.5625167,-13.372215],[134.562332,-13.3722147],[134.5623323,-13.3720339],[134.56224,-13.3720337],[134.5622402,-13.3719433],[134.5623325,-13.3719434],[134.5623328,-13.3717626],[134.5624252,-13.3717628],[134.5624255,-13.3715819],[134.5625179,-13.3715821],[134.5625184,-13.3713108],[134.5626107,-13.371311],[134.562611,-13.3711301],[134.5627034,-13.3711303],[134.5627036,-13.3710399],[134.5627959,-13.37104],[134.5627961,-13.3709496],[134.5629808,-13.3709499],[134.5629811,-13.3707691],[134.5631658,-13.3707694],[134.563166,-13.370679],[134.5632583,-13.3706791],[134.5632582,-13.3707695],[134.5634429,-13.3707699],[134.563443,-13.3706794],[134.5635354,-13.3706796],[134.5635355,-13.3705892],[134.5637202,-13.3705895],[134.5637204,-13.3704991],[134.5638128,-13.3704992],[134.5638126,-13.3705897],[134.5639973,-13.37059],[134.5639971,-13.3706804],[134.5640895,-13.3706806],[134.5640896,-13.3705901],[134.564182,-13.3705903],[134.5641822,-13.3704999],[134.5640898,-13.3704997],[134.5640901,-13.3703189],[134.5639978,-13.3703187],[134.5639979,-13.3702283],[134.5640903,-13.3702285],[134.5640905,-13.370138],[134.5639981,-13.3701379],[134.5639983,-13.3700474],[134.5640906,-13.3700476],[134.5640909,-13.3698668],[134.5642757,-13.3698671],[134.5642758,-13.3697767]],[[134.5699062,-13.3715043],[134.5699059,-13.3716852],[134.5699983,-13.3716853],[134.5699984,-13.3715949],[134.5700908,-13.371595],[134.5700906,-13.3716855],[134.570183,-13.3716856],[134.5701833,-13.3715048],[134.5699062,-13.3715043]],[[134.5709219,-13.3715965],[134.5709218,-13.3716869],[134.5710141,-13.371687],[134.5710143,-13.3715966],[134.5709219,-13.3715965]],[[134.5702753,-13.3716858],[134.5702752,-13.3717762],[134.5703675,-13.3717764],[134.5703677,-13.3716859],[134.5702753,-13.3716858]],[[134.5660263,-13.3721306],[134.5660261,-13.3722211],[134.5662108,-13.3722214],[134.5662107,-13.3723118],[134.5663954,-13.3723121],[134.5663957,-13.3721313],[134.5660263,-13.3721306]],[[134.5698127,-13.3721371],[134.5698124,-13.372318],[134.5699048,-13.3723181],[134.5699049,-13.3722277],[134.5699973,-13.3722278],[134.5699975,-13.3721374],[134.5698127,-13.3721371]],[[134.5700898,-13.3721376],[134.5700895,-13.3723184],[134.5702742,-13.3723187],[134.5702744,-13.3722283],[134.570182,-13.3722282],[134.5701822,-13.3721377],[134.5700898,-13.3721376]]]},"properties":{"site_id":"004","n_pixels":2859,"area_m2":285900.0,"area_ha":28.59,"succeeded":true,"notes":"kept the largest of 3 regions (72 px discarded as fragments)"}},{"type":"Feature","geometry":{"type":"Polygon","coordinates":[[[134.5883819,-13.3139358],[134.5884742,-13.313936],[134.5884741,-13.3140264],[134.5886588,-13.3140267],[134.5886584,-13.3142075],[134.5887508,-13.3142077],[134.5887506,-13.3142981],[134.588843,-13.3142982],[134.5888431,-13.3142078],[134.5889354,-13.314208],[134.5889353,-13.3142984],[134.5891199,-13.3142987],[134.5891196,-13.3144795],[134.589212,-13.3144797],[134.5892117,-13.3146605],[134.5891193,-13.3146604],[134.5891192,-13.3147508],[134.5892115,-13.314751],[134.5892112,-13.3149318],[134.5893035,-13.314932],[134.5893034,-13.3150224],[134.5892111,-13.3150222],[134.5892108,-13.3152031],[134.5891184,-13.3152029],[134.5891181,-13.3153838],[134.5890258,-13.3153836],[134.5890256,-13.315474],[134.5892103,-13.3154743],[134.5892104,-13.3153839],[134.5893028,-13.3153841],[134.5893026,-13.3154745],[134.5894873,-13.3154748],[134.589487,-13.3156556],[134.5895793,-13.3156558],[134.5895792,-13.3157462],[134.5894868,-13.3157461],[134.5894865,-13.3159269],[134.5893019,-13.3159266],[134.5893017,-13.316017],[134.5892094,-13.3160169],[134.5892095,-13.3159265],[134.5891172,-13.3159263],[134.5891171,-13.3160167],[134.5890247,-13.3160166],[134.5890244,-13.3161974],[134.5891167,-13.3161976],[134.5891166,-13.316288],[134.5890243,-13.3162878],[134.589024,-13.3164687],[134.5889316,-13.3164685],[134.5889313,-13.3166494],[134.588839,-13.3166492],[134.5888387,-13.3168301],[134.588654,-13.3168298],[134.5886539,-13.3169202],[134.5884692,-13.3169199],[134.5884694,-13.3168295],[134.5881924,-13.316829],[134.5881921,-13.3170099],[134.5880074,-13.3170096],[134.5880072,-13.3171],[134.5879149,-13.3170999],[134.5879151,-13.3170094],[134.5877304,-13.3170091],[134.5877301,-13.31719],[134.5876378,-13.3171898],[134.5876376,-13.3172802],[134.5875453,-13.3172801],[134.5875451,-13.3173705],[134.5874528,-13.3173704],[134.5874526,-13.3174608],[134.587268,-13.3174605],[134.5872678,-13.3175509],[134.5871755,-13.3175508],[134.5871753,-13.3176412],[134.5869907,-13.3176409],[134.5869905,-13.3177313],[134.5868058,-13.317731],[134.5868057,-13.3178214],[134.586621,-13.3178211],[134.5866209,-13.3179116],[134.5865285,-13.3179114],[134.5865287,-13.317821],[134.5864364,-13.3178208],[134.5864362,-13.3179113],[134.5861592,-13.3179108],[134.5861594,-13.3178204],[134.5859747,-13.3178201],[134.5859749,-13.3177297],[134.5858825,-13.3177295],[134.5858827,-13.3176391],[134.5857903,-13.3176389],[134.5857905,-13.3175485],[134.5856982,-13.3175484],[134.5856983,-13.3174579],[134.585606,-13.3174578],[134.5856061,-13.3173674],[134.5855138,-13.3173672],[134.5855141,-13.3171864],[134.5854218,-13.3171862],[134.5854219,-13.3170958],[134.5855143,-13.3170959],[134.5855146,-13.3169151],[134.5854223,-13.316915],[134.5854224,-13.3168245],[134.5855147,-13.3168247],[134.5855152,-13.3165534],[134.5853305,-13.3165531],[134.5853307,-13.3164627],[134.5852384,-13.3164625],[134.5852385,-13.3163721],[134.5851462,-13.316372],[134.5851463,-13.3162815],[134.585054,-13.3162814],[134.5850542,-13.316191],[134.5849618,-13.3161908],[134.5849621,-13.31601],[134.5848698,-13.3160098],[134.58487,-13.3159194],[134.5849623,-13.3159195],[134.5849626,-13.3157387],[134.5851473,-13.315739],[134.5851474,-13.3156486],[134.5853321,-13.3156489],[134.5853324,-13.315468],[134.5854247,-13.3154682],[134.5854249,-13.3153778],[134.5855172,-13.3153779],[134.5855174,-13.3152875],[134.5856097,-13.3152876],[134.5856098,-13.3151972],[134.5857022,-13.3151974],[134.5857023,-13.315107],[134.5857947,-13.3151071],[134.5857948,-13.3150167],[134.5858871,-13.3150168],[134.5858873,-13.3149264],[134.5859796,-13.3149266],[134.5859798,-13.3148361],[134.5861644,-13.3148364],[134.5861646,-13.314746],[134.5864416,-13.3147465],[134.5864417,-13.314656],[134.5866264,-13.3146563],[134.5866266,-13.3145659],[134.5867189,-13.3145661],[134.5867187,-13.3146565],[134.5868111,-13.3146566],[134.5868112,-13.3145662],[134.5869959,-13.3145665],[134.586996,-13.3144761],[134.5871807,-13.3144764],[134.5871808,-13.314386],[134.5873655,-13.3143863],[134.5873657,-13.3142959],[134.587458,-13.314296],[134.5874578,-13.3143864],[134.5878272,-13.314387],[134.5878273,-13.3142966],[134.5879196,-13.3142968],[134.5879195,-13.3143872],[134.5881042,-13.3143875],[134.588104,-13.3144779],[134.5881963,-13.314478],[134.5881966,-13.3142972],[134.5881043,-13.3142971],[134.5881045,-13.3142066],[134.5881968,-13.3142068],[134.5881971,-13.3140259],[134.5883818,-13.3140262],[134.5883819,-13.3139358]],[[134.5882887,-13.3144782],[134.5882885,-13.3145686],[134.5883808,-13.3145688],[134.588381,-13.3144783],[134.5882887,-13.3144782]],[[134.5884733,-13.3144785],[134.5884732,-13.3145689],[134.5885655,-13.3145691],[134.5885657,-13.3144786],[134.5884733,-13.3144785]],[[134.5889332,-13.3155643],[134.588933,-13.3156547],[134.5890253,-13.3156549],[134.5890255,-13.3155645],[134.5889332,-13.3155643]]]},"properties":{"site_id":"005","n_pixels":1304,"area_m2":130400.0,"area_ha":13.04,"succeeded":true,"notes":"kept the largest of 4 regions (134 px discarded as fragments)"}},{"type":"Feature","geometry":{"type":"Polygon","coordinates":[[[134.487245,-13.3305702],[134.4877067,-13.3305712],[134.4877065,-13.3306616],[134.4877989,-13.3306618],[134.4877987,-13.3307522],[134.4879833,-13.3307526],[134.487983,-13.3309334],[134.4880753,-13.3309336],[134.4880747,-13.3312049],[134.4879824,-13.3312047],[134.487982,-13.3313855],[134.4877973,-13.3313851],[134.4877971,-13.3314756],[134.4878895,-13.3314758],[134.4878893,-13.3315662],[134.488074,-13.3315666],[134.4880742,-13.3314761],[134.4882588,-13.3314765],[134.488259,-13.3313861],[134.4884437,-13.3313865],[134.4884435,-13.3314769],[134.4885358,-13.3314771],[134.488536,-13.3313866],[134.4887207,-13.331387],[134.4887209,-13.3312966],[134.4888132,-13.3312968],[134.488813,-13.3313872],[134.4889977,-13.3313876],[134.4889973,-13.3315684],[134.4890897,-13.3315686],[134.4890899,-13.3314782],[134.4894592,-13.3314789],[134.489459,-13.3315693],[134.4895513,-13.3315695],[134.4895515,-13.3314791],[134.4897362,-13.3314795],[134.489736,-13.3315699],[134.4899207,-13.3315703],[134.4899205,-13.3316607],[134.4901052,-13.3316611],[134.490105,-13.3317515],[134.4902897,-13.3317519],[134.4902893,-13.3319327],[134.4903816,-13.3319329],[134.4903812,-13.3321137],[134.4902889,-13.3321135],[134.4902883,-13.3323848],[134.4903807,-13.332385],[134.4903809,-13.3322946],[134.4905655,-13.3322949],[134.4905657,-13.3322045],[134.4908427,-13.3322051],[134.4908425,-13.3322955],[134.4909349,-13.3322957],[134.4909324,-13.3334712],[134.4908401,-13.333471],[134.4908403,-13.3333805],[134.4906556,-13.3333802],[134.490656,-13.3331993],[134.4905636,-13.3331991],[134.4905634,-13.3332896],[134.4904711,-13.3332894],[134.4904709,-13.3333798],[134.4902862,-13.3333794],[134.4902859,-13.3335603],[134.4903782,-13.3335605],[134.4903774,-13.3339221],[134.4902851,-13.333922],[134.4902847,-13.3341028],[134.4901924,-13.3341026],[134.4901922,-13.334193],[134.4900075,-13.3341927],[134.4900073,-13.3342831],[134.4898227,-13.3342827],[134.4898229,-13.3341923],[134.4894535,-13.3341916],[134.4894537,-13.3341011],[134.4891767,-13.3341006],[134.4891763,-13.3342814],[134.4889916,-13.334281],[134.4889914,-13.3343715],[134.4887144,-13.3343709],[134.4887146,-13.3342805],[134.4886223,-13.3342803],[134.4886221,-13.3343707],[134.4885298,-13.3343705],[134.4885294,-13.3345514],[134.4886217,-13.3345516],[134.4886213,-13.3347324],[134.488529,-13.3347322],[134.4885286,-13.3349131],[134.4883439,-13.3349127],[134.4883437,-13.3350031],[134.4882514,-13.3350029],[134.4882516,-13.3349125],[134.4880669,-13.3349121],[134.4880671,-13.3348217],[134.4879748,-13.3348215],[134.487975,-13.3347311],[134.4877903,-13.3347307],[134.4877907,-13.3345499],[134.4876983,-13.3345497],[134.4876985,-13.3344593],[134.4877909,-13.3344595],[134.4877912,-13.3342786],[134.4879759,-13.334279],[134.4879761,-13.3341886],[134.4876991,-13.334188],[134.4876993,-13.3340976],[134.487607,-13.3340974],[134.4876066,-13.3342783],[134.4874219,-13.3342779],[134.4874217,-13.3343683],[134.4873294,-13.3343681],[134.4873296,-13.3342777],[134.4871449,-13.3342773],[134.4871453,-13.3340965],[134.4870529,-13.3340963],[134.4870533,-13.3339154],[134.486961,-13.3339153],[134.4869612,-13.3338248],[134.4867765,-13.3338245],[134.4867767,-13.333734],[134.486592,-13.3337337],[134.4865922,-13.3336433],[134.4864999,-13.3336431],[134.4865002,-13.3334622],[134.4862232,-13.3334617],[134.486223,-13.3335521],[134.4861307,-13.3335519],[134.4861309,-13.3334615],[134.4859462,-13.3334611],[134.4859466,-13.3332803],[134.4858543,-13.3332801],[134.4858545,-13.3331897],[134.4856698,-13.3331893],[134.48567,-13.3330989],[134.4854853,-13.3330985],[134.4854855,-13.3330081],[134.4853008,-13.3330077],[134.485301,-13.3329173],[134.4852087,-13.3329171],[134.4852089,-13.3328267],[134.4850242,-13.3328263],[134.4850246,-13.3326454],[134.4849322,-13.3326453],[134.4849324,-13.3325548],[134.4848401,-13.3325546],[134.4848399,-13.3326451],[134.4847476,-13.3326449],[134.4847478,-13.3325545],[134.4845631,-13.3325541],[134.4845635,-13.3323732],[134.4844711,-13.332373],[134.4844713,-13.3322826],[134.4845637,-13.3322828],[134.484564,-13.332102],[134.4847487,-13.3321023],[134.4847489,-13.3320119],[134.4848412,-13.3320121],[134.4848411,-13.3321025],[134.4849334,-13.3321027],[134.4849338,-13.3319219],[134.4850261,-13.3319221],[134.4850263,-13.3318316],[134.4851186,-13.3318318],[134.4851188,-13.3317414],[134.4853035,-13.3317418],[134.4853037,-13.3316514],[134.48595,-13.3316527],[134.4859504,-13.3314718],[134.4861351,-13.3314722],[134.4861353,-13.3313818],[134.4862276,-13.331382],[134.4862274,-13.3314724],[134.4864121,-13.3314728],[134.4864117,-13.3316536],[134.4865964,-13.331654],[134.4865968,-13.3314731],[134.4865044,-13.331473],[134.4865046,-13.3313825],[134.486597,-13.3313827],[134.4865973,-13.3312019],[134.486782,-13.3312023],[134.4867822,-13.3311118],[134.4868745,-13.331112],[134.4868744,-13.3312024],[134.487059,-13.3312028],[134.4870592,-13.3311124],[134.4871516,-13.3311126],[134.4871519,-13.3309317],[134.4872443,-13.3309319],[134.4872447,-13.3307511],[134.4871523,-13.3307509],[134.4871525,-13.3306605],[134.4872448,-13.3306607],[134.487245,-13.3305702]],[[134.4876125,-13.3314752],[134.4876123,-13.3315656],[134.4877046,-13.3315658],[134.4877048,-13.3314754],[134.4876125,-13.3314752]],[[134.4901954,-13.3326559],[134.4901952,-13.3327463],[134.4903799,-13.3327467],[134.4903801,-13.3326563],[134.4901954,-13.3326559]],[[134.4880684,-13.3341888],[134.4880683,-13.3342792],[134.4882529,-13.3342796],[134.4882531,-13.3341891],[134.4880684,-13.3341888]],[[134.4883453,-13.3342797],[134.4883451,-13.3343702],[134.4884374,-13.3343704],[134.4884376,-13.3342799],[134.4883453,-13.3342797]]]},"properties":{"site_id":"006","n_pixels":1768,"area_m2":176800.0,"area_ha":17.68,"succeeded":true,"notes":"kept the largest of 2 regions (23 px discarded as fragments)"}},{"type":"Feature","geometry":{"type":"Polygon","coordinates":[[[134.5680748,-13.3627302],[134.5682595,-13.3627305],[134.5682593,-13.362821],[134.568444,-13.3628213],[134.5684437,-13.3630021],[134.5687207,-13.3630026],[134.5687206,-13.363093],[134.5692747,-13.363094],[134.5692745,-13.3631844],[134.5697363,-13.3631852],[134.5697361,-13.3632756],[134.5700132,-13.3632761],[134.570013,-13.3633665],[134.5701977,-13.3633668],[134.5701975,-13.3634572],[134.5705669,-13.3634579],[134.5705668,-13.3635483],[134.5706591,-13.3635484],[134.5706593,-13.363458],[134.5707516,-13.3634582],[134.570752,-13.3632773],[134.5706596,-13.3632772],[134.5706598,-13.3631867],[134.5707521,-13.3631869],[134.5707524,-13.3630061],[134.5709371,-13.3630064],[134.5709373,-13.3629159],[134.5710296,-13.3629161],[134.5710295,-13.3630065],[134.5712142,-13.3630068],[134.5712143,-13.3629164],[134.5713067,-13.3629166],[134.5713068,-13.3628261],[134.5714915,-13.3628265],[134.5714917,-13.362736],[134.5715841,-13.3627362],[134.5715839,-13.3628266],[134.5717686,-13.3628269],[134.5717683,-13.3630078],[134.5718606,-13.3630079],[134.5718605,-13.3630984],[134.5720452,-13.3630987],[134.5720448,-13.3632795],[134.5721372,-13.3632797],[134.5721369,-13.3634605],[134.5722292,-13.3634607],[134.5722291,-13.3635511],[134.5721367,-13.3635509],[134.5721364,-13.3637318],[134.5719517,-13.3637315],[134.5719515,-13.3638219],[134.5721362,-13.3638222],[134.5721361,-13.3639126],[134.5722284,-13.3639128],[134.5722283,-13.3640032],[134.5723206,-13.3640034],[134.5723205,-13.3640938],[134.5724128,-13.3640939],[134.5724126,-13.3641844],[134.572505,-13.3641845],[134.5725048,-13.3642749],[134.5727819,-13.3642754],[134.5727817,-13.3643658],[134.5730588,-13.3643663],[134.5730586,-13.3644567],[134.5737051,-13.3644578],[134.5737049,-13.3645482],[134.5738896,-13.3645485],[134.5738893,-13.3647294],[134.5739816,-13.3647295],[134.5739813,-13.3649104],[134.5740737,-13.3649105],[134.5740729,-13.3653626],[134.5741652,-13.3653628],[134.5741649,-13.3655436],[134.5743496,-13.365544],[134.5743495,-13.3656344],[134.5745342,-13.3656347],[134.574534,-13.3657251],[134.5746263,-13.3657253],[134.5746262,-13.3658157],[134.5747185,-13.3658158],[134.5747182,-13.3659967],[134.5748106,-13.3659968],[134.5748104,-13.3660873],[134.5749028,-13.3660874],[134.5749026,-13.3661778],[134.574995,-13.366178],[134.5749948,-13.3662684],[134.5750871,-13.3662686],[134.575087,-13.366359],[134.5751793,-13.3663591],[134.5751795,-13.3662687],[134.5752718,-13.3662689],[134.5752717,-13.3663593],[134.5755487,-13.3663598],[134.5755486,-13.3664502],[134.5757333,-13.3664505],[134.575733,-13.3666313],[134.5758253,-13.3666315],[134.5758245,-13.3670836],[134.5759169,-13.3670838],[134.5759167,-13.3671742],[134.5758244,-13.367174],[134.5758241,-13.3673549],[134.5757317,-13.3673547],[134.5757315,-13.3674451],[134.5758239,-13.3674453],[134.5758236,-13.3676261],[134.5757312,-13.367626],[134.5757309,-13.3678068],[134.5755462,-13.3678065],[134.5755461,-13.3678969],[134.5754537,-13.3678968],[134.5754539,-13.3678064],[134.5752692,-13.3678061],[134.5752695,-13.3676252],[134.5750848,-13.3676249],[134.5750845,-13.3678057],[134.5751768,-13.3678059],[134.5751766,-13.3678963],[134.5750843,-13.3678962],[134.575084,-13.368077],[134.5748993,-13.3680767],[134.5748991,-13.3681671],[134.5748068,-13.368167],[134.5748069,-13.3680765],[134.5746222,-13.3680762],[134.5746225,-13.3678954],[134.5745302,-13.3678952],[134.5745303,-13.3678048],[134.5746227,-13.367805],[134.5746233,-13.3674433],[134.574531,-13.3674431],[134.5745308,-13.3675335],[134.5744385,-13.3675334],[134.5744386,-13.367443],[134.5742539,-13.3674427],[134.5742542,-13.3672618],[134.5741619,-13.3672617],[134.5741617,-13.3673521],[134.573977,-13.3673518],[134.5739772,-13.3672614],[134.5737925,-13.367261],[134.5737927,-13.3671706],[134.5736079,-13.3671703],[134.5736081,-13.3670799],[134.5733311,-13.3670794],[134.5733312,-13.366989],[134.5731465,-13.3669887],[134.5731468,-13.3668078],[134.5730545,-13.3668077],[134.5730546,-13.3667173],[134.5728699,-13.366717],[134.5728701,-13.3666265],[134.5727777,-13.3666264],[134.5727776,-13.3667168],[134.5726852,-13.3667166],[134.5726854,-13.3666262],[134.572593,-13.3666261],[134.5725929,-13.3667165],[134.5723158,-13.366716],[134.572316,-13.3666256],[134.5718542,-13.3666248],[134.5718541,-13.3667152],[134.5717617,-13.3667151],[134.5717616,-13.3668055],[134.5716692,-13.3668053],[134.5716691,-13.3668958],[134.5714844,-13.3668955],[134.5714842,-13.3669859],[134.5712071,-13.3669854],[134.571207,-13.3670758],[134.5711146,-13.3670757],[134.5711148,-13.3669853],[134.5708377,-13.3669848],[134.5708379,-13.3668944],[134.5706532,-13.366894],[134.5706534,-13.3668036],[134.570561,-13.3668035],[134.5705613,-13.3666226],[134.570469,-13.3666225],[134.5704691,-13.366532],[134.5702844,-13.3665317],[134.5702846,-13.3664413],[134.5701923,-13.3664412],[134.5701921,-13.3665316],[134.569915,-13.3665311],[134.5699152,-13.3664407],[134.5698228,-13.3664405],[134.5698227,-13.3665309],[134.5697303,-13.3665308],[134.5697305,-13.3664404],[134.5695458,-13.3664401],[134.5695461,-13.3662592],[134.5694538,-13.3662591],[134.5694541,-13.3660782],[134.5693617,-13.3660781],[134.5693616,-13.3661685],[134.5691769,-13.3661682],[134.5691767,-13.3662586],[134.5690844,-13.3662584],[134.5690842,-13.3663488],[134.5691766,-13.366349],[134.5691764,-13.3664394],[134.569084,-13.3664393],[134.5690837,-13.3666201],[134.568899,-13.3666198],[134.5688989,-13.3667102],[134.5688065,-13.3667101],[134.5688067,-13.3666196],[134.568622,-13.3666193],[134.5686218,-13.3667097],[134.5684371,-13.3667094],[134.5684369,-13.3667999],[134.5683446,-13.3667997],[134.5683448,-13.3667093],[134.5681601,-13.366709],[134.5681602,-13.3666185],[134.5680679,-13.3666184],[134.568068,-13.366528],[134.5679757,-13.3665278],[134.567976,-13.366347],[134.5678836,-13.3663468],[134.5678838,-13.3662564],[134.5679762,-13.3662565],[134.5679763,-13.3661661],[134.567884,-13.366166],[134.5678841,-13.3660755],[134.5676994,-13.3660752],[134.5676998,-13.3658944],[134.5676074,-13.3658942],[134.5676077,-13.3657134],[134.567423,-13.3657131],[134.5674229,-13.3658035],[134.5673305,-13.3658033],[134.5673307,-13.3657129],[134.567146,-13.3657126],[134.5671463,-13.3655317],[134.5668692,-13.3655313],[134.5668694,-13.3654408],[134.5666847,-13.3654405],[134.566685,-13.3652597],[134.5665927,-13.3652595],[134.5665928,-13.3651691],[134.5666852,-13.3651693],[134.5666855,-13.3649884],[134.5667779,-13.3649886],[134.566778,-13.3648982],[134.5668704,-13.3648983],[134.5668707,-13.3647175],[134.5670554,-13.3647178],[134.5670557,-13.3645369],[134.5671481,-13.3645371],[134.5671484,-13.3643563],[134.5673331,-13.3643566],[134.5673333,-13.3642661],[134.5672409,-13.364266],[134.5672412,-13.3640851],[134.5671489,-13.364085],[134.567149,-13.3639946],[134.5672414,-13.3639947],[134.5672417,-13.3638139],[134.5673341,-13.363814],[134.5673344,-13.3636332],[134.567242,-13.363633],[134.5672424,-13.3634522],[134.5673347,-13.3634523],[134.567335,-13.3632715],[134.5675197,-13.3632718],[134.56752,-13.363091],[134.5677047,-13.3630913],[134.5677049,-13.3630009],[134.5678896,-13.3630012],[134.5678899,-13.3628203],[134.5680746,-13.3628207],[134.5680748,-13.3627302]],[[134.5710287,-13.3634586],[134.5710285,-13.3635491],[134.5712132,-13.3635494],[134.5712134,-13.3634589],[134.5710287,-13.3634586]],[[134.5676079,-13.3656229],[134.5676077,-13.3657134],[134.5677001,-13.3657135],[134.5677002,-13.3656231],[134.5676079,-13.3656229]],[[134.5751778,-13.3672634],[134.5751776,-13.3673538],[134.5752699,-13.3673539],[134.5752701,-13.3672635],[134.5751778,-13.3672634]]]},"properties":{"site_id":"008","n_pixels":3008,"area_m2":300800.0,"area_ha":30.08,"succeeded":true,"notes":"kept the largest of 9 regions (676 px discarded as fragments)"}}]}