{
"type": "FeatureCollection",
"name": "north_aus_tropical_savanna_smooth10km",
"crs": { "type": "name", "properties": { "name": "urn:ogc:def:crs:EPSG::3577" } },
"features": [
{ "type": "Feature", "properties": { "OBJECTID": 12, "CMZ_ID": 12, "CM_ZONE": "North Australian Tropical Savanna Woodlands", "CMZ_AREA_SQ_KM": 1315554.05192874, "SHAPEAREA": 111.38838373954, "SHAPELEN": 375.66967707918002, "area_km2": 1298378 }, "geometry": { "type": "Polygon", "coordinates": [ [ [ 1180308.685584073420614, -1171426.270842987345532 ], [ 1133233.692430661292747, -1195365.964197446126491 ], [ 1103332.430818644352257, -1301982.142084871884435 ], [ 1113174.270279195625335, -1312137.992825910216197 ], [ 1102151.792011606041342, -1323131.411795298336074 ], [ 1092963.492185266455635, -1304803.365545190870762 ], [ 1059585.089681115234271, -1365215.485853315098211 ], [ 1076592.567517470801249, -1356356.560610321583226 ], [ 1100839.871140555478632, -1386483.66305362386629 ], [ 1093880.864889921154827, -1403987.366419135360047 ], [ 1082035.591067633824423, -1379661.138597109122202 ], [ 1057375.210945284226909, -1407485.687846008688211 ], [ 1068856.650702148675919, -1455839.360412731766701 ], [ 1047541.40899423265364, -1467260.944591748295352 ], [ 1035390.300551606342196, -1505558.5426095565781 ], [ 1048688.434420596575364, -1541587.654733370291069 ], [ 1036623.586784884217195, -1573961.454586476320401 ], [ 1045060.597931375843473, -1656035.970406309235841 ], [ 1022469.08181496837642, -1686727.835127411643043 ], [ 997035.034254975034855, -1790175.654757597483695 ], [ 928116.137602039030753, -1902460.634780505439267 ], [ 847736.141686557792127, -1916561.553696936229244 ], [ 770709.894745951867662, -1869169.769973119255155 ], [ 751694.372042759787291, -1822804.987195502733812 ], [ 658733.111519360914826, -1792047.450534458039328 ], [ 614913.212686024722643, -1740671.685214702039957 ], [ 538486.545237242360599, -1697731.491163314552978 ], [ 506779.099772883229889, -1703302.416982374154031 ], [ 458394.047056987415999, -1644808.349686253583059 ], [ 376348.041781773616094, -1593089.540972298011184 ], [ 361857.856058196630329, -1564421.017341136699542 ], [ 384709.052195195632521, -1558997.844212371390313 ], [ 426077.872648433607537, -1509570.562721393071115 ], [ 447550.235764906276017, -1452130.831328952452168 ], [ 425188.146453591994941, -1457346.715205789310858 ], [ 427508.237247644749004, -1414105.688603495713323 ], [ 456315.847826637909748, -1393504.156104732304811 ], [ 454788.970718567201402, -1402898.800251010572538 ], [ 456878.986632327665575, -1409410.956583805149421 ], [ 459694.018838723597582, -1411182.593099032761529 ], [ 477285.40308666205965, -1384582.370448605855927 ], [ 475983.946680703898892, -1416360.689687521662563 ], [ 491433.140185262542218, -1408489.996249963762239 ], [ 502969.715771799383219, -1388401.551282901084051 ], [ 490822.549111538741272, -1379261.699151180684566 ], [ 514322.794708010798786, -1382831.853485175641254 ], [ 492852.527478133153636, -1357700.881523876450956 ], [ 509847.452733858022839, -1364716.162231757538393 ], [ 522758.211747199646197, -1326262.659987502964213 ], [ 551382.630987946642563, -1312496.016911928076297 ], [ 539203.744291164097376, -1316000.970603597117588 ], [ 530303.706957779126242, -1291410.852917161071673 ], [ 515090.934003525413573, -1302966.361958989873528 ], [ 493585.317502272955608, -1272678.310474636266008 ], [ 508935.053048850037158, -1264260.749875142704695 ], [ 507306.955550239305012, -1260128.166269125649706 ], [ 462121.163216884946451, -1289558.360926175490022 ], [ 485205.838912518054713, -1299413.132248582551256 ], [ 476438.089521529327612, -1315749.904212830355391 ], [ 444290.103744843683671, -1324853.62558473367244 ], [ 450090.503843421756756, -1297591.252545548602939 ], [ 435448.477700216753874, -1295270.221064775949344 ], [ 440579.271790419647004, -1291322.034711601445451 ], [ 441766.336903472256381, -1287696.854332583025098 ], [ 445011.732774490548763, -1284753.513706248719245 ], [ 448781.478051759826485, -1279634.686609613476321 ], [ 448931.624966056784615, -1278224.861126594012603 ], [ 411075.284104977385141, -1304026.940762713318691 ], [ 404883.494626628817059, -1291950.754378529964015 ], [ 434365.064757953281514, -1265774.849208301398903 ], [ 358780.830854374158662, -1302637.92022514436394 ], [ 305335.96056263288483, -1262041.434055441757664 ], [ 288449.048229911015369, -1277924.692584543023258 ], [ 249441.243716201162897, -1264794.492228843504563 ], [ 242100.853097013576189, -1281047.4320602202788 ], [ 236888.786056901124539, -1255410.515238908585161 ], [ 204429.298265477205859, -1252403.192792587447912 ], [ 213233.735311324649956, -1238050.537728806724772 ], [ 168700.177817763469648, -1251941.36130289779976 ], [ 170703.034832172386814, -1239384.677591903600842 ], [ 128312.360446999955457, -1233081.592015204485506 ], [ 102496.343273053891608, -1192304.898182743228972 ], [ 74500.863127377189812, -1212043.396478937473148 ], [ 38480.721488180257438, -1169051.096080998890102 ], [ 31519.970065630037425, -1185765.72840534360148 ], [ 15269.579245658449508, -1169270.070933553855866 ], [ 26521.612043398028618, -1192981.382270152913406 ], [ 19012.05982029066945, -1201515.329813264543191 ], [ -644.916224589367175, -1169536.464309927076101 ], [ -26362.219313981935557, -1190289.557367445901036 ], [ -6296.962751322658733, -1190641.951613020384684 ], [ 12914.346919960726154, -1214475.583641638047993 ], [ 58758.858200375725573, -1206825.475907770218328 ], [ 80596.953410750458715, -1228770.051692683482543 ], [ 64603.813996688717452, -1241212.666891229804605 ], [ 69305.918601274941466, -1273056.307916379533708 ], [ 83736.789569662243593, -1279435.308983221882954 ], [ 87346.33465435486869, -1283466.878266110783443 ], [ 48869.1434240863382, -1280300.077171264216304 ], [ 49404.556037323724013, -1297889.445912586525083 ], [ 43433.275042520501302, -1309647.133885756833479 ], [ 38888.805166077640024, -1285932.454124592011794 ], [ -61355.22693085562787, -1294893.021002935944125 ], [ -77750.654493721987819, -1269028.930759361712262 ], [ -82806.405818319210084, -1289561.801130322972313 ], [ -107495.760679324332159, -1280590.946516379248351 ], [ -106478.957952892771573, -1304114.151103000156581 ], [ -131129.820076756470371, -1309135.439563408028334 ], [ -115289.70544321698253, -1335230.262593979015946 ], [ -157420.643641637900146, -1309099.388041174737737 ], [ -160728.961216867523035, -1334184.454772554570809 ], [ -141571.510486973507795, -1343093.609932579798624 ], [ -172527.603557359834667, -1334158.395082121482119 ], [ -183344.232751270668814, -1362310.1294485416729 ], [ -206332.370745710330084, -1370526.621265531051904 ], [ -207371.589711605280172, -1392380.580147540895268 ], [ -185912.680168758379295, -1409097.531447542598471 ], [ -182354.815751124115195, -1425180.970051515847445 ], [ -190755.653417164983694, -1410467.79560791188851 ], [ -218570.138281073101098, -1432742.401388868689537 ], [ -239601.74095100958948, -1429626.595177181530744 ], [ -246488.973569615365705, -1481408.579096474917606 ], [ -287113.501898812071886, -1521770.930135711561888 ], [ -269405.533665183349513, -1545111.90120911388658 ], [ -241761.551800773682771, -1543251.115589823806658 ], [ -258561.246992577798665, -1559587.737744729733095 ], [ -243661.659046593878884, -1574342.064132789848372 ], [ -218603.852399754454382, -1563655.684589810203761 ], [ -227006.63232046115445, -1577317.116045222384855 ], [ -255878.350138298963429, -1575830.509621779434383 ], [ -244062.205647562979721, -1616069.421136820688844 ], [ -263323.896882444620132, -1615651.940157864941284 ], [ -273335.882209673232865, -1587688.354489095043391 ], [ -294086.636652239249088, -1579031.90877994033508 ], [ -293509.528006376000121, -1606511.944700783351436 ], [ -299499.11942077166168, -1606103.525306750321761 ], [ -299627.225440875568893, -1615009.407560200663283 ], [ -301013.209355395461898, -1615903.475861547514796 ], [ -300646.3600483625778, -1614186.211568895960227 ], [ -303996.345710831345059, -1612493.10880719916895 ], [ -303023.817155061755329, -1611023.912104635266587 ], [ -303520.137197371514048, -1611029.298543261596933 ], [ -306349.917094648990314, -1619610.761759383138269 ], [ -311364.285984685178846, -1620529.745685662841424 ], [ -315631.668470365169924, -1584905.632913883309811 ], [ -374914.110160433279816, -1571247.631822541821748 ], [ -393327.278855397365987, -1577003.064611266134307 ], [ -378431.141372692014556, -1594834.854016338475049 ], [ -395397.880754387297202, -1584628.532645927974954 ], [ -391683.455993509909604, -1605450.836725949309766 ], [ -402847.721433105296455, -1594586.11677851062268 ], [ -412077.810828446352389, -1605673.96049019927159 ], [ -394121.485425723833032, -1653506.633234727662057 ], [ -419330.368007040931843, -1618142.613884537946433 ], [ -419858.77226749289548, -1644607.030111209489405 ], [ -424382.057572971913032, -1651913.343619816470891 ], [ -430030.665364470158238, -1653329.207185942213982 ], [ -410995.736653788888361, -1566661.004576730309054 ], [ -440554.614922848588321, -1553152.193065910134465 ], [ -499777.825075795524754, -1484805.672073173103854 ], [ -531139.477904388098978, -1490254.87616558605805 ], [ -551717.599431618349627, -1464715.403973846929148 ], [ -573191.527793603250757, -1469403.491870595142245 ], [ -555918.665201355353929, -1491343.157253371085972 ], [ -578986.445991807617247, -1491249.22255061683245 ], [ -587863.05641255271621, -1521787.49445468490012 ], [ -605840.847477936418727, -1505686.065806600265205 ], [ -593649.662588652456179, -1488220.1765677544754 ], [ -627035.781600266811438, -1522389.679960640380159 ], [ -632412.00453855318483, -1492902.09730768064037 ], [ -655019.93278261332307, -1489307.997124354122207 ], [ -644331.182135843671858, -1494379.386458812747151 ], [ -644425.381470529246144, -1501299.556603140896186 ], [ -656216.401338413357735, -1504991.514585549011827 ], [ -636897.864998179138638, -1512983.40044577489607 ], [ -660728.124259362462908, -1570426.533899318892509 ], [ -674865.184702459606342, -1547053.740259619196877 ], [ -690384.846162085654214, -1568410.169676299206913 ], [ -683801.980599765665829, -1529609.016796263167635 ], [ -695632.042980386060663, -1525018.017871761228889 ], [ -697528.551969049265608, -1560900.233539420645684 ], [ -714482.301819373038597, -1570645.206543597625569 ], [ -722458.637639370979741, -1556180.404414240969345 ], [ -745222.487588012125343, -1583905.207282037707046 ], [ -724758.740011698682792, -1597463.843681391328573 ], [ -735768.433287231484428, -1603276.470818411326036 ], [ -736134.63509716920089, -1607838.245112419128418 ], [ -709293.009844054933637, -1609665.98605889827013 ], [ -719756.63699676678516, -1622264.992755430750549 ], [ -706340.781852093758062, -1624586.100614814087749 ], [ -704180.155860988539644, -1626526.322937182849273 ], [ -740663.833181755035184, -1628188.830811193911359 ], [ -751215.023213224252686, -1609276.620277330977842 ], [ -776154.871259671635926, -1630779.091241591610014 ], [ -770986.695559832733124, -1641902.231206950265914 ], [ -761212.484404591843486, -1631846.323836812051013 ], [ -752737.946198571589775, -1629504.868812432512641 ], [ -770700.545385767472908, -1646620.128145948052406 ], [ -745363.208737872540951, -1643740.171410139184445 ], [ -748846.031718010781333, -1660273.094999278662726 ], [ -735800.418315432150848, -1668393.306532545713708 ], [ -728688.060491302167065, -1674603.581973924068734 ], [ -789600.921849197242409, -1642019.323568126186728 ], [ -794283.690904045361094, -1650956.181260500568897 ], [ -786411.649857818032615, -1653888.753450505668297 ], [ -791296.009291316964664, -1668863.963811268797144 ], [ -818574.195331334602088, -1676154.334079363150522 ], [ -807152.085143819218501, -1724953.876285666367039 ], [ -795869.558755959151313, -1703101.50214908993803 ], [ -782496.042868682648987, -1703041.094080806011334 ], [ -796117.977030869340524, -1713219.075869618682191 ], [ -790509.177381587331183, -1735202.601481758290902 ], [ -803219.029163177474402, -1745557.500944109400734 ], [ -812278.843216450768523, -1732642.83051647990942 ], [ -815855.637694396893494, -1763057.185839313082397 ], [ -784070.052652080659755, -1761807.801468513673171 ], [ -770469.004748032311909, -1768994.93805893487297 ], [ -761106.059610105236061, -1768369.418538939207792 ], [ -758586.229711034102365, -1764518.505347692407668 ], [ -756041.629877834580839, -1765409.419134151190519 ], [ -759329.689899807213806, -1768879.887865487718955 ], [ -767438.198576050344855, -1770658.806141027482226 ], [ -808992.151043991092592, -1770421.58793974481523 ], [ -816003.622896351735108, -1763731.447216566419229 ], [ -814166.052758959122002, -1776734.605973966885358 ], [ -828329.679151391959749, -1778151.565054982202128 ], [ -868631.379878792795353, -1752146.816228915471584 ], [ -859275.831014309660532, -1770021.205439974088222 ], [ -870758.028899363125674, -1762536.95568897924386 ], [ -866967.252450194209814, -1767690.415752100991085 ], [ -871679.086034625652246, -1777557.088678463594988 ], [ -883266.77822017413564, -1747948.672655717469752 ], [ -906582.687144358409569, -1750706.081514183431864 ], [ -888247.897192049305886, -1776702.006731000263244 ], [ -911114.408194741583429, -1773574.171319790184498 ], [ -893079.210792812285945, -1784576.867641485994682 ], [ -918168.040416062925942, -1787169.434224167373031 ], [ -897721.168325498350896, -1792204.308455164311454 ], [ -909153.216030370444059, -1804290.245741472346708 ], [ -875990.906072809244506, -1830021.200140390079468 ], [ -858949.726707476191223, -1822370.143059774069116 ], [ -875292.242448923527263, -1840153.770568561274558 ], [ -870772.19055779883638, -1854402.974741133861244 ], [ -860467.978438008343801, -1862050.218086362583563 ], [ -861084.085486063384451, -1864647.839790124678984 ], [ -897750.892718398245052, -1844864.344214241718873 ], [ -883806.085362923913635, -1867512.563592558726668 ], [ -893041.133115097763948, -1906840.887064221082255 ], [ -945147.773832238744944, -1835942.258922453504056 ], [ -947819.801493094768375, -1810076.81946020340547 ], [ -967748.48248770670034, -1800640.331372777698562 ], [ -960928.967047281097621, -1774706.112185966456309 ], [ -972832.264134237309918, -1778863.269731696695089 ], [ -990192.284138234332204, -1812681.127705204533413 ], [ -986169.76223943871446, -1813854.653993981424719 ], [ -979662.837511116405949, -1823569.781489628367126 ], [ -1006968.134349968284369, -1822582.626091498881578 ], [ -1003964.28727094293572, -1843772.120972190517932 ], [ -1016509.744933262118138, -1837988.748749507823959 ], [ -1045966.552192277740687, -1881164.573929525911808 ], [ -1039605.944292668602429, -1959238.542860099347308 ], [ -1020465.489749397267587, -1958365.703714637085795 ], [ -1017589.378500092658214, -1973471.076788962353021 ], [ -1073395.158530426677316, -2014883.664979225257412 ], [ -1116659.307124487124383, -2118694.199558461084962 ], [ -1151946.002948900219053, -2152971.916315713897347 ], [ -1273075.790583768859506, -2200239.281672689132392 ], [ -1311498.929935532156378, -2231419.268142232205719 ], [ -1136610.522703836439177, -2177790.710680732037872 ], [ -1122541.193756424821913, -2158317.570257061626762 ], [ -1046217.331372125307098, -2151273.989006972871721 ], [ -1061729.652483069337904, -2121562.019636082462966 ], [ -1042215.172868205816485, -2095246.763290360569954 ], [ -927932.795715310145169, -2046102.237757620634511 ], [ -888379.269535188446753, -2056513.973229778464884 ], [ -786022.269355368916877, -2027088.176272622775286 ], [ -757462.2232902192045, -2050579.464326645480469 ], [ -758603.227116781519726, -2067435.461911489022896 ], [ -717218.030716461711563, -2085344.874279165873304 ], [ -600515.688410176429898, -2067016.211851416388527 ], [ -545827.874322544899769, -2084129.969362608157098 ], [ -472346.02039557218086, -2073922.20712415734306 ], [ -452394.478660283901263, -2094115.887137776473537 ], [ -398513.063274762709625, -2055530.758307228563353 ], [ -384175.276328918174841, -2013471.07189928740263 ], [ -350890.282951961678918, -1995409.579966554883868 ], [ -272563.485619469138328, -1998232.539794991491362 ], [ -196656.516481251135701, -1940553.54121287795715 ], [ 86517.925663640678977, -1974613.000417175237089 ], [ 146022.072979366988875, -1930528.120850936509669 ], [ 132282.738745297363494, -1913254.434014369733632 ], [ 148779.430151998793008, -1867533.274368080310524 ], [ 109276.34714401558449, -1810347.870905563933775 ], [ 147184.234831996582216, -1786331.704867224441841 ], [ 166184.929285409889417, -1866198.091296188998967 ], [ 198713.765064720035298, -1866876.961017596535385 ], [ 207945.97932652165764, -1846857.035575986141339 ], [ 226944.054857551935129, -1853257.275338937761262 ], [ 262014.871829119831091, -1913664.752060686936602 ], [ 287252.554750759038143, -1896617.355345486430451 ], [ 330649.963147475093137, -1916212.150254799984396 ], [ 339977.167396758391988, -1901268.23259369819425 ], [ 395589.467150145792402, -1901741.352225936017931 ], [ 407995.57913077052217, -1876795.958041269797832 ], [ 448772.396897733793594, -1876056.788442553486675 ], [ 472404.985169233870693, -1912033.579581073718145 ], [ 460955.679869162559044, -1933890.979938587639481 ], [ 493505.89591394958552, -2000301.412411449709907 ], [ 487963.014302362047601, -2046152.476257730973884 ], [ 533677.284457666566595, -2035749.278697026660666 ], [ 522773.340511488262564, -2006284.352416621753946 ], [ 590378.176587298512459, -2027844.507949619321153 ], [ 632809.323475739569403, -2004679.464884814107791 ], [ 680092.758452637237497, -2014632.859936164692044 ], [ 686832.918903192738071, -2029388.379093013703823 ], [ 701277.414654093212448, -1984376.686421767110005 ], [ 728878.168708094744943, -1989717.616158613702282 ], [ 712547.468479381175712, -2014125.933207439724356 ], [ 749892.267569263116457, -2020918.177741129184142 ], [ 735059.790733812493272, -2039447.950945042539388 ], [ 752523.279699765262194, -2037901.417515527224168 ], [ 757141.608314640121534, -2055122.494641714030877 ], [ 767753.871009503141977, -2038293.969361602095887 ], [ 792357.932543100556359, -2041946.813407296780497 ], [ 808603.840417596627958, -2115836.35814511962235 ], [ 816782.062851373688318, -2101241.924501119181514 ], [ 846391.590253429370932, -2139742.947067699860781 ], [ 836174.075469344505109, -2202921.53384261764586 ], [ 863416.348201490705833, -2106063.09410698665306 ], [ 849140.80644274991937, -2179817.918816133402288 ], [ 865674.852997616748326, -2186162.283249252941459 ], [ 857769.438755676150322, -2235553.115700672846287 ], [ 871434.897096551838331, -2225995.600101724267006 ], [ 903509.308711851248518, -2242717.12502671033144 ], [ 914390.443418965442106, -2258788.95381835103035 ], [ 901891.428610528237186, -2266674.191660910844803 ], [ 928792.648742866469547, -2282403.050982036627829 ], [ 916466.315259572351351, -2294481.719642189331353 ], [ 920084.260228115483187, -2367303.41172932786867 ], [ 980932.698858937015757, -2280943.598701125942171 ], [ 985899.220747965620831, -2238565.895029580686241 ], [ 961397.281236802926287, -2192563.141170422546566 ], [ 990753.730429106391966, -2204281.590910354163498 ], [ 1001295.296531116706319, -2190447.277392217889428 ], [ 1034077.687419089255854, -2223604.64634014479816 ], [ 1034616.534007249982096, -2254299.545236389152706 ], [ 1048188.243713300325908, -2246722.79415079113096 ], [ 1070621.071140280924737, -2285519.091463650111109 ], [ 1143120.194002744043246, -2262505.601355708669871 ], [ 1130100.388857866637409, -2252227.96845516236499 ], [ 1135474.491359167499468, -2229457.351887794211507 ], [ 1145873.125503608724102, -2227148.686421612277627 ], [ 1200888.098082026699558, -2230122.705057193059474 ], [ 1190649.629564586328343, -2248075.618325447198004 ], [ 1200780.989771638065577, -2239651.763650071807206 ], [ 1204008.070123332319781, -2246623.549545947927982 ], [ 1161001.017549383454025, -2275218.559816815890372 ], [ 1208642.180222361115739, -2257208.434525106567889 ], [ 1188276.419500313932076, -2283452.610863255336881 ], [ 1177629.784007048001513, -2275513.405822533648461 ], [ 1186601.98108747554943, -2287235.383149948902428 ], [ 1210635.907988989027217, -2265144.427391906268895 ], [ 1208342.380478047765791, -2280379.3865229729563 ], [ 1213761.078667687717825, -2267861.117937633302063 ], [ 1246213.965271442197263, -2263531.020168373826891 ], [ 1234936.600336476229131, -2271705.704940209165215 ], [ 1250722.095537200570107, -2266766.022982009220868 ], [ 1248468.067032392835245, -2280577.452930021565408 ], [ 1231068.428227191092446, -2275474.153836831450462 ], [ 1245789.195782541763037, -2286486.230415138415992 ], [ 1300081.872928170952946, -2267344.016894001979381 ], [ 1292647.075845784042031, -2278536.080808892380446 ], [ 1290887.720099746016786, -2286334.85539007326588 ], [ 1293949.859754315810278, -2288143.243671716656536 ], [ 1323523.049198899883777, -2243455.694574547465891 ], [ 1370065.417606913018972, -2277478.699804979376495 ], [ 1371760.326979155419394, -2266868.516797595657408 ], [ 1395812.71264180727303, -2276941.273198031354696 ], [ 1391394.943741975352168, -2256994.692245337180793 ], [ 1410174.412799910875037, -2267254.193740944378078 ], [ 1410385.252490752842277, -2247338.594663029536605 ], [ 1426567.685563446255401, -2258314.824472185224295 ], [ 1417316.244391028070822, -2251275.234348251484334 ], [ 1416980.227813430363312, -2247597.600433567073196 ], [ 1432904.92455794964917, -2240240.416300136130303 ], [ 1415175.54345697700046, -2216137.925076249521226 ], [ 1452774.840239724842831, -2205200.85579709848389 ], [ 1479680.319143170490861, -2214948.04533637361601 ], [ 1486797.320091721368954, -2223325.653250542469323 ], [ 1452448.558569190325215, -2248825.083139201626182 ], [ 1458829.935496265999973, -2266164.5749620818533 ], [ 1512383.861606786726043, -2265970.218654732685536 ], [ 1531220.868730810005218, -2296031.154609850607812 ], [ 1543256.777414889307693, -2280039.553336933255196 ], [ 1544873.178616805933416, -2304528.65132146095857 ], [ 1564849.08216053317301, -2293272.887900642585009 ], [ 1569973.532906356733292, -2304105.286533233243972 ], [ 1552913.066482893424109, -2329559.614236876368523 ], [ 1602188.576948266476393, -2328660.088218760676682 ], [ 1601333.529050995828584, -2338500.344692199490964 ], [ 1614368.563638019841164, -2349259.636048919986933 ], [ 1611726.379850348923355, -2318374.890033940318972 ], [ 1594246.19280074746348, -2321665.046070168726146 ], [ 1588821.310515134828165, -2306741.720919105224311 ], [ 1602281.924600495025516, -2294972.547110006213188 ], [ 1580608.128743855049834, -2291390.909968369174749 ], [ 1567579.92228843527846, -2262347.381068551447242 ], [ 1573432.29684500163421, -2242195.006842937786132 ], [ 1554307.532576764235273, -2240033.492419261019677 ], [ 1562314.071112944744527, -2223866.506694678682834 ], [ 1523772.395404423121363, -2214760.577765009365976 ], [ 1542937.686207315884531, -2211995.338865180499852 ], [ 1519945.653936349321157, -2199379.677816063165665 ], [ 1546173.701922341017053, -2203032.979605401400477 ], [ 1523723.8387449181173, -2176226.111334729474038 ], [ 1533464.576273691607639, -2164002.878331587184221 ], [ 1504960.884794248500839, -2156720.389387633651495 ], [ 1493758.084188503446057, -2127637.781655778642744 ], [ 1474026.999337270390242, -2124294.111900865100324 ], [ 1473353.377125360071659, -2102734.199340540915728 ], [ 1432393.951848903438076, -2072942.935616846429184 ], [ 1415278.422154733911157, -1926665.778614455834031 ], [ 1439280.625657346332446, -1903056.089662714861333 ], [ 1444688.58862774935551, -1866699.541939864866436 ], [ 1383738.300520939053968, -1793935.658018880523741 ], [ 1404867.413948730798438, -1783445.279675466706976 ], [ 1410231.538459540344775, -1759008.984969646669924 ], [ 1393948.436115534743294, -1735788.947332941228524 ], [ 1356119.20720546785742, -1728223.963382782880217 ], [ 1346482.04728283546865, -1729819.671490701846778 ], [ 1349352.81803222047165, -1731483.855883507058024 ], [ 1338302.944629813544452, -1734367.747754523996264 ], [ 1333452.35839551105164, -1739436.853927748976275 ], [ 1346102.887084288988262, -1733210.357167658396065 ], [ 1341217.114964487031102, -1747616.135423243744299 ], [ 1357182.70818651583977, -1750766.877486827550456 ], [ 1351445.56961752846837, -1756342.54338520928286 ], [ 1304777.56374339084141, -1748217.671919738641009 ], [ 1302622.502953992923722, -1716725.789503293810412 ], [ 1316053.780946915270761, -1739686.597144592087716 ], [ 1356185.082225337391719, -1724647.030534086050466 ], [ 1354322.21040908829309, -1697208.501834980212152 ], [ 1381833.891106229275465, -1699246.865897769806907 ], [ 1386089.761282192077488, -1667878.986681604292244 ], [ 1346259.535250439075753, -1590780.119871024042368 ], [ 1330287.906200167257339, -1603590.987225977703929 ], [ 1331236.685340704396367, -1578722.908817780436948 ], [ 1299031.704907317878678, -1597354.688317860476673 ], [ 1280227.175260549876839, -1580583.368739760713652 ], [ 1261722.949785140808672, -1512238.847950926749036 ], [ 1272087.041520880302414, -1413400.53574723075144 ], [ 1250723.115832376759499, -1417240.219168948475271 ], [ 1262617.531001087743789, -1387299.599650859599933 ], [ 1225788.571227157954127, -1354745.440078525105491 ], [ 1247406.134037605952471, -1315815.329055340960622 ], [ 1205628.270717364037409, -1298716.663423902355134 ], [ 1204822.326070379232988, -1215004.623906812863424 ], [ 1184938.756057214690372, -1190918.753092220285907 ], [ 1180356.585903574014083, -1197458.23289930052124 ], [ 1177965.395311129977927, -1196173.534920532722026 ], [ 1173816.259236379759386, -1200908.470661509549245 ], [ 1171939.9825940921437, -1201737.084416919155046 ], [ 1169952.921094567980617, -1200895.338556872680783 ], [ 1180308.685584073420614, -1171426.270842987345532 ] ], [ [ 1057736.975076021393761, -2193580.556297635659575 ], [ 1085198.574673680355772, -2206328.778811114840209 ], [ 1088842.326439638622105, -2222902.94868567539379 ], [ 1102386.950658228714019, -2217212.332726637367159 ], [ 1130016.48440905706957, -2257188.411456464324147 ], [ 1115647.217402322683483, -2265487.374981129541993 ], [ 1070753.736063113668934, -2241425.100893277674913 ], [ 1066347.35875913198106, -2231306.191154979169369 ], [ 1072024.030853170901537, -2226267.372334472835064 ], [ 1074249.435399662004784, -2226526.379096020944417 ], [ 1074635.060583760496229, -2224796.190716034267098 ], [ 1076405.496251393342391, -2225157.83964130282402 ], [ 1077430.52359645976685, -2224835.708538794890046 ], [ 1083726.915161736309528, -2220832.048585854005069 ], [ 1084251.221151210833341, -2218982.23330258205533 ], [ 1047116.594213956734166, -2212187.60119875986129 ], [ 1057736.975076021393761, -2193580.556297635659575 ] ] ] } }
]
}
